ONEWEB-0228             
1 48780U 21045P   24110.89470999  .00000016  00000+0  80916-5 0  9997
2 48780  87.9025  56.0459 0001790  80.7877 279.3456 13.15547393140689
